SOYUZ-MS 28             
1 66664U 25275A   26187.47606523  .00006115  00000+0  11937-3 0  9992
2 66664  51.6304 204.6205 0006688 262.9565  97.0662 15.48920216645228
CREW DRAGON 12          
1 67796U 26031A   26187.47606523  .00006115  00000+0  11937-3 0  9990
2 67796  51.6304 204.6205 0006688 262.9565  97.0662 15.48920216627494
SHENZHOU-23 (SZ-23)     
1 69180U 26113A   26187.43325319  .00013455  00000+0  17841-3 0  9992
2 69180  41.4676 204.9373 0002945 272.9146  87.1355 15.58010165296551
