{"fetched_at":"2026-07-07T07:58:19.692Z","source":"https://celestrak.org/NORAD/elements/gp.php?GROUP=stations&FORMAT=JSON","constellation":"crewed-vehicles","records":[{"OBJECT_NAME":"SOYUZ-MS 28","OBJECT_ID":"2025-275A","EPOCH":"2026-07-06T11:25:32.035872","CLASSIFICATION_TYPE":"U","MEAN_MOTION":15.48920216,"ECCENTRICITY":0.0006688,"INCLINATION":51.6304,"RA_OF_ASC_NODE":204.6205,"ARG_OF_PERICENTER":262.9565,"MEAN_ANOMALY":97.0662,"EPHEMERIS_TYPE":0,"NORAD_CAT_ID":66664,"ELEMENT_SET_NO":999,"REV_AT_EPOCH":64522,"BSTAR":0.00011937,"MEAN_MOTION_DOT":0.00006115,"MEAN_MOTION_DDOT":0},{"OBJECT_NAME":"CREW DRAGON 12","OBJECT_ID":"2026-031A","EPOCH":"2026-07-06T11:25:32.035872","CLASSIFICATION_TYPE":"U","MEAN_MOTION":15.48920216,"ECCENTRICITY":0.0006688,"INCLINATION":51.6304,"RA_OF_ASC_NODE":204.6205,"ARG_OF_PERICENTER":262.9565,"MEAN_ANOMALY":97.0662,"EPHEMERIS_TYPE":0,"NORAD_CAT_ID":67796,"ELEMENT_SET_NO":999,"REV_AT_EPOCH":62749,"BSTAR":0.00011937,"MEAN_MOTION_DOT":0.00006115,"MEAN_MOTION_DDOT":0},{"OBJECT_NAME":"SHENZHOU-23 (SZ-23)","OBJECT_ID":"2026-113A","EPOCH":"2026-07-06T10:23:53.075616","CLASSIFICATION_TYPE":"U","MEAN_MOTION":15.58010165,"ECCENTRICITY":0.00029451,"INCLINATION":41.4676,"RA_OF_ASC_NODE":204.9373,"ARG_OF_PERICENTER":272.9146,"MEAN_ANOMALY":87.1355,"EPHEMERIS_TYPE":0,"NORAD_CAT_ID":69180,"ELEMENT_SET_NO":999,"REV_AT_EPOCH":29655,"BSTAR":0.0001784142,"MEAN_MOTION_DOT":0.00013455,"MEAN_MOTION_DDOT":0}]}
